$$SOE
2460147.500000000, A.D. 2023-Jul-22 00:00:00.0000, 3.110394770475430E+08, 2.507472020928079E+07, 9.562084708986279E+06,
2460154.500000000, A.D. 2023-Jul-29 00:00:00.0000, 3.115190220976289E+08, 3.822147622674872E+07, 9.372010280375455E+06,
2460161.500000000, A.D. 2023-Aug-05 00:00:00.0000, 3.115102080595769E+08, 5.130848376470673E+07, 9.167231777632244E+06,
2460168.500000000, A.D. 2023-Aug-12 00:00:00.0000, 3.110215572861708E+08, 6.431662749001683E+07, 8.948320337438382E+06,
2460175.500000000, A.D. 2023-Aug-19 00:00:00.0000, 3.100623088588730E+08, 7.722762354362799E+07, 8.715857009163566E+06,
2460182.500000000, A.D. 2023-Aug-26 00:00:00.0000, 3.086423426791502E+08, 9.002403345480102E+07, 8.470430119595353E+06,
2460189.500000000, A.D. 2023-Sep-02 00:00:00.0000, 3.067721060954916E+08, 1.026892715690084E+08, 8.212632816278666E+06,
2460196.500000000, A.D. 2023-Sep-09 00:00:00.0000, 3.044625435405958E+08, 1.152076065531256E+08, 7.943060787529923E+06,
2460203.500000000, A.D. 2023-Sep-16 00:00:00.0000, 3.017250296922461E+08, 1.275641575255889E+08, 7.662310140282713E+06,
2460210.500000000, A.D. 2023-Sep-23 00:00:00.0000, 2.985713068292391E+08, 1.397448856900983E+08, 7.370975418461494E+06,
2460217.500000000, A.D. 2023-Sep-30 00:00:00.0000, 2.950134262055890E+08, 1.517365832357317E+08, 7.069647884471573E+06,
2460224.500000000, A.D. 2023-Oct-07 00:00:00.0000, 2.910636911790634E+08, 1.635268595228602E+08, 6.758914229794055E+06,
2460231.500000000, A.D. 2023-Oct-14 00:00:00.0000, 2.867346031830507E+08, 1.751041217815165E+08, 6.439355343427435E+06,
2460238.500000000, A.D. 2023-Oct-21 00:00:00.0000, 2.820388137693067E+08, 1.864575524209048E+08, 6.111544965773366E+06,
2460245.500000000, A.D. 2023-Oct-28 00:00:00.0000, 2.769890812469319E+08, 1.975770856668651E+08, 5.776048535426974E+06,
2460252.500000000, A.D. 2023-Nov-04 00:00:00.0000, 2.715982305812699E+08, 2.084533831736809E+08, 5.433422271897972E+06,
2460259.500000000, A.D. 2023-Nov-11 00:00:00.0000, 2.658791166108469E+08, 2.190778083870163E+08, 5.084212419154271E+06,
2460266.500000000, A.D. 2023-Nov-18 00:00:00.0000, 2.598445906561356E+08, 2.294423999341547E+08, 4.728954614460051E+06,
2460273.500000000, A.D. 2023-Nov-25 00:00:00.0000, 2.535074704306093E+08, 2.395398443699554E+08, 4.368173367785931E+06,
2460280.500000000, A.D. 2023-Dec-02 00:00:00.0000, 2.468805131099358E+08, 2.493634485379863E+08, 4.002381638778687E+06,
2460287.500000000, A.D. 2023-Dec-09 00:00:00.0000, 2.399763914583107E+08, 2.589071117236029E+08, 3.632080490141839E+06,
2460294.500000000, A.D. 2023-Dec-16 00:00:00.0000, 2.328076731168486E+08, 2.681652978143643E+08, 3.257758783132955E+06,
2460301.500000000, A.D. 2023-Dec-23 00:00:00.0000, 2.253868032192292E+08, 2.771330083265343E+08, 2.879892930427268E+06,
2460308.500000000, A.D. 2023-Dec-30 00:00:00.0000, 2.177260888080338E+08, 2.858057574851047E+08, 2.498946906110883E+06,
2460315.500000000, A.D. 2024-Jan-06 00:00:00.0000, 2.098376830887185E+08, 2.941795471140007E+08, 2.115372475118443E+06,
2460322.500000000, A.D. 2024-Jan-13 00:00:00.0000, 2.017335725177792E+08, 3.022508396355000E+08, 1.729609196680099E+06,
2460329.500000000, A.D. 2024-Jan-20 00:00:00.0000, 1.934255677824011E+08, 3.100165323415105E+08, 1.342084334067389E+06,
2460336.500000000, A.D. 2024-Jan-27 00:00:00.0000, 1.849252964765121E+08, 3.174739336458458E+08, 9.532129034094661E+05,
2460343.500000000, A.D. 2024-Feb-03 00:00:00.0000, 1.762441968866878E+08, 3.246207404141934E+08, 5.633978176760972E+05,
2460350.500000000, A.D. 2024-Feb-10 00:00:00.0000, 1.673935130174367E+08, 3.314550161135950E+08, 1.730300713545829E+05,
2460357.500000000, A.D. 2024-Feb-17 00:00:00.0000, 1.583842908559946E+08, 3.379751698104096E+08, -2.175110510666072E+05,
2460364.500000000, A.D. 2024-Feb-24 00:00:00.0000, 1.492273757828934E+08, 3.441799360423805E+08, -6.078577492592335E+05,
2460371.500000000, A.D. 2024-Mar-02 00:00:00.0000, 1.399334110367544E+08, 3.500683555345100E+08, -9.976534731156379E+05,
2460378.500000000, A.D. 2024-Mar-09 00:00:00.0000, 1.305128372597554E+08, 3.556397566911251E+08, -1.386552702051327E+06,
2460385.500000000, A.D. 2024-Mar-16 00:00:00.0000, 1.209758934153400E+08, 3.608937380516348E+08, -1.774220760796234E+06,
2460392.500000000, A.D. 2024-Mar-23 00:00:00.0000, 1.113326188807781E+08, 3.658301528050431E+08, -2.160333574581042E+06,
2460399.500000000, A.D. 2024-Mar-30 00:00:00.0000, 1.015928543878762E+08, 3.704490953132952E+08, -2.544577163129941E+06,
2460406.500000000, A.D. 2024-Apr-06 00:00:00.0000, 9.176624198338263E+07, 3.747508862481146E+08, -2.926647173713893E+06,
2460413.500000000, A.D. 2024-Apr-13 00:00:00.0000, 8.186222748512511E+07, 3.787360571582400E+08, -3.306248712295771E+06,
2460420.500000000, A.D. 2024-Apr-20 00:00:00.0000, 7.189006441906546E+07, 3.824053371191395E+08, -3.683096168945462E+06,
2460427.500000000, A.D. 2024-Apr-27 00:00:00.0000, 6.185881786032725E+07, 3.857596408725747E+08, -4.056912945764601E+06,
2460434.500000000, A.D. 2024-May-04 00:00:00.0000, 5.177736821034646E+07, 3.888000577224813E+08, -4.427431153946251E+06,
2460441.500000000, A.D. 2024-May-11 00:00:00.0000, 4.165441509864096E+07, 3.915278410562798E+08, -4.794391311125576E+06,
2460448.500000000, A.D. 2024-May-18 00:00:00.0000, 3.149848144669486E+07, 3.939443984844459E+08, -5.157542045629919E+06,
2460455.500000000, A.D. 2024-May-25 00:00:00.0000, 2.131791767911197E+07, 3.960512825627141E+08, -5.516639811211199E+06,
2460462.500000000, A.D. 2024-Jun-01 00:00:00.0000, 1.112090610707734E+07, 3.978501820110993E+08, -5.871448623067677E+06,
2460469.500000000, A.D. 2024-Jun-08 00:00:00.0000, 9.154657000747166E+05, 3.993429133780338E+08, -6.221739840117782E+06,
2460476.500000000, A.D. 2024-Jun-15 00:00:00.0000, -9.290542381540321E+06, 4.005314136655837E+08, -6.567291985964745E+06,
2460483.500000000, A.D. 2024-Jun-22 00:00:00.0000, -1.948940952195649E+07, 4.014177350619349E+08, -6.907890420599580E+06,
2460490.500000000, A.D. 2024-Jun-29 00:00:00.0000, -2.967357679596692E+07, 4.020040399280809E+08, -7.243326816855490E+06,
2460497.500000000, A.D. 2024-Jul-06 00:00:00.0000, -3.983563190566229E+07, 4.022925935355203E+08, -7.573398885051012E+06,
2460504.500000000, A.D. 2024-Jul-13 00:00:00.0000, -4.996830398252521E+07, 4.022857573604192E+08, -7.897910293634415E+06,
2460511.500000000, A.D. 2024-Jul-20 00:00:00.0000, -6.006445825513689E+07, 4.019859840673646E+08, -8.216670510541022E+06,
2460518.500000000, A.D. 2024-Jul-27 00:00:00.0000, -7.011709124943146E+07, 4.013958132033367E+08, -8.529494583921134E+06,
2460525.500000000, A.D. 2024-Aug-03 00:00:00.0000, -8.011932625854348E+07, 4.005178672063177E+08, -8.836202918199688E+06,
2460532.500000000, A.D. 2024-Aug-10 00:00:00.0000, -9.006440892544881E+07, 3.993548477037721E+08, -9.136621061298013E+06,
2460539.500000000, A.D. 2024-Aug-17 00:00:00.0000, -9.994570289933138E+07, 3.979095321030630E+08, -9.430579505781144E+06,
2460546.500000000, A.D. 2024-Aug-24 00:00:00.0000, -1.097566855454268E+08, 3.961847704329947E+08, -9.717913508465409E+06,
2460553.500000000, A.D. 2024-Aug-31 00:00:00.0000, -1.194909435995559E+08, 3.941834823576605E+08, -9.998462944247097E+06,
2460560.500000000, A.D. 2024-Sep-07 00:00:00.0000, -1.291421684080777E+08, 3.919086544728847E+08, -1.027207221746153E+07,
2460567.500000000, A.D. 2024-Sep-14 00:00:00.0000, -1.387041506740800E+08, 3.893633388669912E+08, -1.053859015739225E+07,
2460574.500000000, A.D. 2024-Sep-21 00:00:00.0000, -1.481707767433254E+08, 3.865506533471941E+08, -1.079786967858879E+07,
2460581.500000000, A.D. 2024-Sep-28 00:00:00.0000, -1.575360269183994E+08, 3.834737800907292E+08, -1.104976742515427E+07,
2460588.500000000, A.D. 2024-Oct-05 00:00:00.0000, -1.667939721346216E+08, 3.801359627059358E+08, -1.129414373482624E+07,
2460595.500000000, A.D. 2024-Oct-12 00:00:00.0000, -1.759387693646532E+08, 3.765405046740801E+08, -1.153086264637680E+07,
2460602.500000000, A.D. 2024-Oct-19 00:00:00.0000, -1.849646575049936E+08, 3.726907688941234E+08, -1.175979181228775E+07,
2460609.500000000, A.D. 2024-Oct-26 00:00:00.0000, -1.938659537777275E+08, 3.685901775195409E+08, -1.198080237913460E+07,
2460616.500000000, A.D. 2024-Nov-02 00:00:00.0000, -2.026370503920221E+08, 3.642422119296888E+08, -1.219376887121746E+07,
2460623.500000000, A.D. 2024-Nov-09 00:00:00.0000, -2.112724113707957E+08, 3.596504128486426E+08, -1.239856908447541E+07,
2460630.500000000, A.D. 2024-Nov-16 00:00:00.0000, -2.197665695185592E+08, 3.548183806049436E+08, -1.259508399293154E+07,
2460637.500000000, A.D. 2024-Nov-23 00:00:00.0000, -2.281141234853219E+08, 3.497497754761933E+08, -1.278319767593721E+07,
2460644.500000000, A.D. 2024-Nov-30 00:00:00.0000, -2.363097347201080E+08, 3.444483180701595E+08, -1.296279728866465E+07,
2460651.500000000, A.D. 2024-Dec-07 00:00:00.0000, -2.443481238968569E+08, 3.389177901577037E+08, -1.313377307978092E+07,
2460658.500000000, A.D. 2024-Dec-14 00:00:00.0000, -2.522240675047311E+08, 3.331620371773910E+08, -1.329601829308526E+07,
2460665.500000000, A.D. 2024-Dec-21 00:00:00.0000, -2.599323969249225E+08, 3.271849711694918E+08, -1.344942884211233E+07,
2460672.500000000, A.D. 2024-Dec-28 00:00:00.0000, -2.674679980215026E+08, 3.209905711690665E+08, -1.359390318088254E+07,
2460679.500000000, A.D. 2025-Jan-04 00:00:00.0000, -2.748258086508965E+08, 3.145828834276162E+08, -1.372934241404562E+07,
2460686.500000000, A.D. 2025-Jan-11 00:00:00.0000, -2.820008159177793E+08, 3.079660231211737E+08, -1.385565034382093E+07,
2460693.500000000, A.D. 2025-Jan-18 00:00:00.0000, -2.889880540986797E+08, 3.011441766269680E+08, -1.397273344500750E+07,
2460700.500000000, A.D. 2025-Jan-25 00:00:00.0000, -2.957826029924953E+08, 2.941216038932672E+08, -1.408050082904644E+07,
2460707.500000000, A.D. 2025-Feb-01 00:00:00.0000, -3.023795865117349E+08, 2.869026408708525E+08, -1.417886421678443E+07,
2460714.500000000, A.D. 2025-Feb-08 00:00:00.0000, -3.087741714599260E+08, 2.794917020246646E+08, -1.426773792358381E+07,
$$EOE